start=new Date('2023-02-22T00:00:00.000Z').valueOf();
sats=[{"ECCENTRICITY":"0.00010390","OBJECT_ID":"2020-057AN","BSTAR":"0.00028725000000","OBJECT_NAME":"STARLINK-1636","SEMIMAJOR_AXIS":"6925.284","FILE":"3821329","MEAN_ANOMALY":"264.5911","CLASSIFICATION_TYPE":"U","RCS_SIZE":"LARGE","PERIOD":"95.591","MEAN_MOTION":"15.06420947","ARG_OF_PERICENTER":"95.5196","TLE_LINE2":"2 46153  53.0533 248.0593 0001039  95.5196 264.5911 15.06420947138759","GP_ID":"226328282","MEAN_MOTION_DOT":"0.00004002","TLE_LINE1":"1 46153U 20057AN  23052.80541420  .00004002  00000-0  28725-3 0  9992","REF_FRAME":"TEME","PERIAPSIS":"546.430","APOAPSIS":"547.869","DECAY_DATE":null,"TIME_SYSTEM":"UTC","LAUNCH_DATE":"2020-08-18","ELEMENT_SET_NO":"999","SITE":"AFETR","CENTER_NAME":"EARTH","NORAD_CAT_ID":"46153","OBJECT_TYPE":"PAYLOAD","MEAN_MOTION_DDOT":"0.0000000000000","REV_AT_EPOCH":"13875","EPOCH":"2023-02-21T19:19:47.786880","RA_OF_ASC_NODE":"248.0593","INCLINATION":"53.0533","COUNTRY_CODE":"US","EPHEMERIS_TYPE":"0","MEAN_ELEMENT_THEORY":"SGP4"},{"REV_AT_EPOCH":"13863","MEAN_MOTION_DDOT":"0.0000000000000","OBJECT_TYPE":"PAYLOAD","NORAD_CAT_ID":"46154","CENTER_NAME":"EARTH","SITE":"AFETR","ELEMENT_SET_NO":"999","LAUNCH_DATE":"2020-08-18","MEAN_ELEMENT_THEORY":"SGP4","EPHEMERIS_TYPE":"0","COUNTRY_CODE":"US","INCLINATION":"53.0522","RA_OF_ASC_NODE":"257.7163","EPOCH":"2023-02-21T21:09:57.506112","CLASSIFICATION_TYPE":"U","FILE":"3821329","MEAN_ANOMALY":"284.4081","SEMIMAJOR_AXIS":"6925.339","OBJECT_NAME":"STARLINK-1642","BSTAR":"0.00099275000000","OBJECT_ID":"2020-057AP","ECCENTRICITY":"0.00011970","TIME_SYSTEM":"UTC","DECAY_DATE":null,"PERIAPSIS":"546.375","APOAPSIS":"548.033","REF_FRAME":"TEME","TLE_LINE1":"1 46154U 20057AP  23052.88191558  .00014538  00000-0  99275-3 0  9997","MEAN_MOTION_DOT":"0.00014538","GP_ID":"226328532","TLE_LINE2":"2 46154  53.0522 257.7163 0001197  75.7040 284.4081 15.06403141138634","ARG_OF_PERICENTER":"75.7040","MEAN_MOTION":"15.06403141","PERIOD":"95.592","RCS_SIZE":"LARGE"},{"REV_AT_EPOCH":"14028","MEAN_MOTION_DDOT":"0.0000000000000","OBJECT_TYPE":"PAYLOAD","NORAD_CAT_ID":"46155","CENTER_NAME":"EARTH","SITE":"AFETR","ELEMENT_SET_NO":"999","LAUNCH_DATE":"2020-08-18","MEAN_ELEMENT_THEORY":"SGP4","EPHEMERIS_TYPE":"0","COUNTRY_CODE":"US","INCLINATION":"53.0526","RA_OF_ASC_NODE":"227.9084","EPOCH":"2023-02-21T20:10:14.140416","CLASSIFICATION_TYPE":"U","FILE":"3821329","MEAN_ANOMALY":"280.3713","SEMIMAJOR_AXIS":"6925.328","BSTAR":"0.00018664000000","OBJECT_NAME":"STARLINK-1667","OBJECT_ID":"2020-057AQ","ECCENTRICITY":"0.00011810","TIME_SYSTEM":"UTC","DECAY_DATE":null,"PERIAPSIS":"546.376","REF_FRAME":"TEME","APOAPSIS":"548.011","TLE_LINE1":"1 46155U 20057AQ  23052.84044144  .00002500  00000-0  18664-3 0  9991","MEAN_MOTION_DOT":"0.00002500","GP_ID":"226329282","TLE_LINE2":"2 46155  53.0526 227.9084 0001181  79.7409 280.3713 15.06406546140289","ARG_OF_PERICENTER":"79.7409","MEAN_MOTION":"15.06406546","PERIOD":"95.592","RCS_SIZE":"LARGE"},{"INCLINATION":"53.0519","EPOCH":"2023-02-21T21:32:31.742304","RA_OF_ASC_NODE":"247.6495","EPHEMERIS_TYPE":"0","MEAN_ELEMENT_THEORY":"SGP4","COUNTRY_CODE":"US","SITE":"AFETR","CENTER_NAME":"EARTH","LAUNCH_DATE":"2020-08-18","ELEMENT_SET_NO":"999","MEAN_MOTION_DDOT":"0.0000000000000","REV_AT_EPOCH":"14002","NORAD_CAT_ID":"46156","OBJECT_TYPE":"PAYLOAD","MEAN_MOTION":"15.06390560","ARG_OF_PERICENTER":"85.4752","TLE_LINE2":"2 46156  53.0519 247.6495 0001055  85.4752 274.6358 15.06390560140023","RCS_SIZE":"LARGE","PERIOD":"95.593","REF_FRAME":"TEME","PERIAPSIS":"546.512","APOAPSIS":"547.973","DECAY_DATE":null,"TIME_SYSTEM":"UTC","GP_ID":"226329033","MEAN_MOTION_DOT":"0.00010154","TLE_LINE1":"1 46156U 20057AR  23052.89758961  .00010154  00000-0  69974-3 0  9990","ECCENTRICITY":"0.00010550","OBJECT_ID":"2020-057AR","CLASSIFICATION_TYPE":"U","BSTAR":"0.00069974000000","OBJECT_NAME":"STARLINK-1545","SEMIMAJOR_AXIS":"6925.377","FILE":"3821329","MEAN_ANOMALY":"274.6358"},{"SITE":"AFETR","CENTER_NAME":"EARTH","ELEMENT_SET_NO":"999","LAUNCH_DATE":"2020-08-18","MEAN_MOTION_DDOT":"0.0000000000000","REV_AT_EPOCH":"13903","NORAD_CAT_ID":"46157","OBJECT_TYPE":"PAYLOAD","INCLINATION":"53.0519","EPOCH":"2023-02-21T18:02:50.436096","RA_OF_ASC_NODE":"228.3015","EPHEMERIS_TYPE":"0","MEAN_ELEMENT_THEORY":"SGP4","COUNTRY_CODE":"US","ECCENTRICITY":"0.00013000","OBJECT_ID":"2020-057AS","CLASSIFICATION_TYPE":"U","SEMIMAJOR_AXIS":"6925.330","OBJECT_NAME":"STARLINK-1587","BSTAR":"0.00112830000000","FILE":"3821329","MEAN_ANOMALY":"281.7091","ARG_OF_PERICENTER":"78.4044","MEAN_MOTION":"15.06405995","TLE_LINE2":"2 46157  53.0519 228.3015 0001300  78.4044 281.7091 15.06405995139038","RCS_SIZE":"LARGE","PERIOD":"95.592","DECAY_DATE":null,"APOAPSIS":"548.095","PERIAPSIS":"546.295","REF_FRAME":"TEME","TIME_SYSTEM":"UTC","MEAN_MOTION_DOT":"0.00016567","GP_ID":"226327783","TLE_LINE1":"1 46157U 20057AS  23052.75197264  .00016567  00000-0  11283-2 0  9992"},{"CLASSIFICATION_TYPE":"U","MEAN_ANOMALY":"267.1974","FILE":"3821329","OBJECT_NAME":"STARLINK-1589","BSTAR":"0.00127470000000","SEMIMAJOR_AXIS":"6925.181","OBJECT_ID":"2020-057AT","ECCENTRICITY":"0.00008820","TIME_SYSTEM":"UTC","PERIAPSIS":"546.435","REF_FRAME":"TEME","APOAPSIS":"547.656","DECAY_DATE":null,"TLE_LINE1":"1 46158U 20057AT  23052.88097941  .00018784  00000-0  12747-2 0  9997","GP_ID":"226328033","MEAN_MOTION_DOT":"0.00018784","TLE_LINE2":"2 46158  53.0527 227.7222 0000882  92.9116 267.1974 15.06454835140314","MEAN_MOTION":"15.06454835","ARG_OF_PERICENTER":"92.9116","PERIOD":"95.589","RCS_SIZE":"LARGE","REV_AT_EPOCH":"14031","MEAN_MOTION_DDOT":"0.0000000000000","OBJECT_TYPE":"PAYLOAD","NORAD_CAT_ID":"46158","CENTER_NAME":"EARTH","SITE":"AFETR","LAUNCH_DATE":"2020-08-18","ELEMENT_SET_NO":"999","MEAN_ELEMENT_THEORY":"SGP4","EPHEMERIS_TYPE":"0","COUNTRY_CODE":"US","INCLINATION":"53.0527","RA_OF_ASC_NODE":"227.7222","EPOCH":"2023-02-21T21:08:36.621024"},{"INCLINATION":"53.0503","EPOCH":"2023-02-21T20:31:28.299360","RA_OF_ASC_NODE":"267.8401","EPHEMERIS_TYPE":"0","MEAN_ELEMENT_THEORY":"SGP4","COUNTRY_CODE":"US","SITE":"AFETR","CENTER_NAME":"EARTH","ELEMENT_SET_NO":"999","LAUNCH_DATE":"2020-08-18","MEAN_MOTION_DDOT":"0.0000000000000","REV_AT_EPOCH":"13974","NORAD_CAT_ID":"46159","OBJECT_TYPE":"PAYLOAD","ARG_OF_PERICENTER":"78.9736","MEAN_MOTION":"15.06405781","TLE_LINE2":"2 46159  53.0503 267.8401 0001364  78.9736 281.1406 15.06405781139748","RCS_SIZE":"LARGE","PERIOD":"95.592","DECAY_DATE":null,"REF_FRAME":"TEME","PERIAPSIS":"546.251","APOAPSIS":"548.140","TIME_SYSTEM":"UTC","MEAN_MOTION_DOT":"0.00016666","GP_ID":"226328784","TLE_LINE1":"1 46159U 20057AU  23052.85518865  .00016666  00000-0  11349-2 0  9992","ECCENTRICITY":"0.00013640","OBJECT_ID":"2020-057AU","CLASSIFICATION_TYPE":"U","SEMIMAJOR_AXIS":"6925.331","OBJECT_NAME":"STARLINK-1595","BSTAR":"0.00113490000000","FILE":"3821329","MEAN_ANOMALY":"281.1406"},{"EPHEMERIS_TYPE":"0","MEAN_ELEMENT_THEORY":"SGP4","COUNTRY_CODE":"US","INCLINATION":"53.0511","EPOCH":"2023-02-21T21:53:44.501568","RA_OF_ASC_NODE":"247.5820","MEAN_MOTION_DDOT":"0.0000000000000","REV_AT_EPOCH":"14002","NORAD_CAT_ID":"46160","OBJECT_TYPE":"PAYLOAD","SITE":"AFETR","CENTER_NAME":"EARTH","ELEMENT_SET_NO":"999","LAUNCH_DATE":"2020-08-18","DECAY_DATE":null,"APOAPSIS":"547.971","PERIAPSIS":"546.360","REF_FRAME":"TEME","TIME_SYSTEM":"UTC","MEAN_MOTION_DOT":"0.00003711","GP_ID":"226329533","TLE_LINE1":"1 46160U 20057AV  23052.91232062  .00003711  00000-0  26779-3 0  9994","ARG_OF_PERICENTER":"91.3872","MEAN_MOTION":"15.06415669","TLE_LINE2":"2 46160  53.0511 247.5820 0001163  91.3872 268.7250 15.06415669140023","RCS_SIZE":"LARGE","PERIOD":"95.591","CLASSIFICATION_TYPE":"U","SEMIMAJOR_AXIS":"6925.301","BSTAR":"0.00026779000000","OBJECT_NAME":"STARLINK-1598","FILE":"3821329","MEAN_ANOMALY":"268.7250","ECCENTRICITY":"0.00011630","OBJECT_ID":"2020-057AV"},{"OBJECT_ID":"2020-057AW","ECCENTRICITY":"0.00013450","CLASSIFICATION_TYPE":"U","MEAN_ANOMALY":"274.6646","FILE":"3821329","BSTAR":"0.00028927000000","OBJECT_NAME":"STARLINK-1600","SEMIMAJOR_AXIS":"6925.337","TLE_LINE2":"2 46161  53.0537 247.9795 0001345  85.4496 274.6646 15.06403713140016","MEAN_MOTION":"15.06403713","ARG_OF_PERICENTER":"85.4496","PERIOD":"95.592","RCS_SIZE":"LARGE","TIME_SYSTEM":"UTC","REF_FRAME":"TEME","PERIAPSIS":"546.271","APOAPSIS":"548.134","DECAY_DATE":null,"TLE_LINE1":"1 46161U 20057AW  23052.82385571  .00004030  00000-0  28927-3 0  9991","GP_ID":"226328283","MEAN_MOTION_DOT":"0.00004030","CENTER_NAME":"EARTH","SITE":"AFETR","LAUNCH_DATE":"2020-08-18","ELEMENT_SET_NO":"999","REV_AT_EPOCH":"14001","MEAN_MOTION_DDOT":"0.0000000000000","OBJECT_TYPE":"PAYLOAD","NORAD_CAT_ID":"46161","INCLINATION":"53.0537","RA_OF_ASC_NODE":"247.9795","EPOCH":"2023-02-21T19:46:21.133344","MEAN_ELEMENT_THEORY":"SGP4","EPHEMERIS_TYPE":"0","COUNTRY_CODE":"US"},{"ECCENTRICITY":"0.00009270","OBJECT_ID":"2020-057AX","BSTAR":"0.00079971000000","OBJECT_NAME":"STARLINK-1603","SEMIMAJOR_AXIS":"6925.306","FILE":"3821329","MEAN_ANOMALY":"269.9899","CLASSIFICATION_TYPE":"U","RCS_SIZE":"LARGE","PERIOD":"95.591","MEAN_MOTION":"15.06413916","ARG_OF_PERICENTER":"90.1196","TLE_LINE2":"2 46162  53.0511 247.6610 0000927  90.1196 269.9899 15.06413916140032","GP_ID":"226328533","MEAN_MOTION_DOT":"0.00011655","TLE_LINE1":"1 46162U 20057AX  23052.89388672  .00011655  00000-0  79971-3 0  9990","PERIAPSIS":"546.529","APOAPSIS":"547.813","REF_FRAME":"TEME","DECAY_DATE":null,"TIME_SYSTEM":"UTC","LAUNCH_DATE":"2020-08-18","ELEMENT_SET_NO":"999","SITE":"AFETR","CENTER_NAME":"EARTH","NORAD_CAT_ID":"46162","OBJECT_TYPE":"PAYLOAD","MEAN_MOTION_DDOT":"0.0000000000000","REV_AT_EPOCH":"14003","EPOCH":"2023-02-21T21:27:11.812608","RA_OF_ASC_NODE":"247.6610","INCLINATION":"53.0511","COUNTRY_CODE":"US","EPHEMERIS_TYPE":"0","MEAN_ELEMENT_THEORY":"SGP4"}];
